{"type": "FeatureCollection", "name": "TOR5_training_centerline", "crs": {"type": "name", "properties": {"name": "EPSG:4326"}}, "features": [{"type": "Feature", "properties": {"case_id": "TOR5", "label_source": "user_verified_red_blue_filter_annotation", "training_only": true}, "geometry": {"type": "LineString", "coordinates": [[-85.72474534330715, 34.737447795024046], [-85.72501483789237, 34.737447795024046], [-85.72528433247761, 34.737447795024046], [-85.72555382706285, 34.737447795024046], [-85.7258233216481, 34.73771728960928], [-85.72609281623332, 34.737447795024046], [-85.72636231081856, 34.737447795024046], [-85.7266318054038, 34.73717830043881], [-85.72690129998902, 34.736908805853574], [-85.72717079457426, 34.736908805853574], [-85.7274402891595, 34.736908805853574], [-85.72770978374474, 34.73663931126834], [-85.72797927832997, 34.73663931126834], [-85.72824877291521, 34.73663931126834], [-85.72851826750045, 34.7363698166831], [-85.72878776208569, 34.73610032209787], [-85.72905725667091, 34.73583082751263], [-85.72932675125615, 34.73583082751263], [-85.72959624584139, 34.73583082751263], [-85.72986574042662, 34.7355613329274], [-85.73013523501186, 34.7355613329274], [-85.7304047295971, 34.7355613329274], [-85.73067422418234, 34.73529183834216], [-85.73094371876756, 34.735022343756924], [-85.7312132133528, 34.734752849171684], [-85.73148270793804, 34.734752849171684], [-85.73175220252328, 34.734752849171684], [-85.73202169710851, 34.73448335458645], [-85.73229119169375, 34.73448335458645], [-85.73256068627899, 34.73448335458645], [-85.73283018086421, 34.73421386000122], [-85.73309967544945, 34.73421386000122], [-85.73336917003469, 34.73394436541598], [-85.73363866461993, 34.73367487083075], [-85.73390815920516, 34.73367487083075], [-85.7341776537904, 34.73367487083075], [-85.73444714837564, 34.73367487083075], [-85.73471664296088, 34.73340537624551], [-85.7349861375461, 34.733135881660274], [-85.73525563213134, 34.732866387075035], [-85.73552512671658, 34.732866387075035], [-85.7357946213018, 34.732866387075035], [-85.73606411588705, 34.7325968924898], [-85.73633361047229, 34.7325968924898], [-85.73660310505753, 34.7325968924898], [-85.73687259964275, 34.73232739790456], [-85.73714209422799, 34.73232739790456], [-85.73741158881323, 34.73205790331933], [-85.73768108339847, 34.73178840873409], [-85.7379505779837, 34.73151891414886], [-85.73822007256894, 34.73151891414886], [-85.73848956715418, 34.73151891414886], [-85.7387590617394, 34.731249419563625], [-85.73902855632464, 34.730979924978385], [-85.73929805090988, 34.73071043039315], [-85.73956754549512, 34.73071043039315], [-85.73983704008035, 34.73044093580791], [-85.74010653466559, 34.73044093580791], [-85.74037602925083, 34.73017144122268], [-85.74064552383606, 34.72990194663744], [-85.74091501842129, 34.72963245205221], [-85.74118451300653, 34.72936295746697], [-85.74145400759177, 34.72936295746697], [-85.741723502177, 34.729093462881735], [-85.74199299676224, 34.728823968296496], [-85.74226249134747, 34.72855447371126], [-85.74253198593271, 34.72855447371126], [-85.74280148051794, 34.72855447371126], [-85.74307097510318, 34.72828497912603], [-85.74307097510318, 34.72801548454079], [-85.74334046968842, 34.72774598995556], [-85.74360996427366, 34.72774598995556], [-85.74387945885888, 34.72774598995556], [-85.74414895344412, 34.72747649537032], [-85.74441844802936, 34.72747649537032], [-85.74468794261459, 34.72747649537032], [-85.74495743719983, 34.727207000785086], [-85.74495743719983, 34.726937506199846], [-85.74522693178507, 34.72666801161461], [-85.74549642637031, 34.72666801161461], [-85.74576592095553, 34.72666801161461], [-85.74603541554077, 34.726398517029374], [-85.74630491012601, 34.726398517029374], [-85.74657440471125, 34.726398517029374], [-85.74684389929648, 34.72612902244414], [-85.74684389929648, 34.7258595278589], [-85.74711339388172, 34.72559003327367], [-85.74738288846696, 34.72559003327367], [-85.74765238305218, 34.72559003327367], [-85.74792187763742, 34.725320538688436], [-85.74819137222266, 34.725320538688436], [-85.7484608668079, 34.725320538688436], [-85.74873036139313, 34.725051044103196], [-85.74899985597837, 34.724781549517964], [-85.74926935056361, 34.724781549517964], [-85.74953884514885, 34.724512054932724], [-85.74980833973407, 34.724512054932724], [-85.75007783431931, 34.724512054932724], [-85.75034732890455, 34.72424256034749], [-85.75061682348978, 34.72424256034749], [-85.75088631807502, 34.72424256034749], [-85.75115581266026, 34.72397306576225], [-85.7514253072455, 34.72370357117702], [-85.75169480183072, 34.72370357117702], [-85.75196429641596, 34.72370357117702], [-85.7522337910012, 34.72370357117702], [-85.75250328558644, 34.72343407659178], [-85.75277278017167, 34.72343407659178], [-85.75304227475691, 34.72343407659178], [-85.75331176934215, 34.72343407659178], [-85.75358126392737, 34.72316458200655], [-85.75385075851261, 34.72316458200655], [-85.75412025309785, 34.72316458200655], [-85.75438974768309, 34.72289508742131], [-85.75465924226832, 34.722625592836074], [-85.75492873685356, 34.722625592836074], [-85.7551982314388, 34.722625592836074], [-85.75546772602404, 34.722625592836074], [-85.75573722060926, 34.722625592836074], [-85.7560067151945, 34.72235609825084], [-85.75627620977974, 34.72235609825084], [-85.75654570436497, 34.72235609825084], [-85.7568151989502, 34.72235609825084], [-85.75708469353545, 34.7220866036656], [-85.75735418812069, 34.7220866036656], [-85.75762368270591, 34.7220866036656], [-85.75789317729115, 34.72181710908037], [-85.75816267187639, 34.72154761449513], [-85.75843216646163, 34.72154761449513], [-85.75870166104686, 34.7212781199099], [-85.7589711556321, 34.7212781199099], [-85.75924065021734, 34.72100862532466], [-85.75951014480256, 34.720739130739425], [-85.7597796393878, 34.720739130739425], [-85.76004913397304, 34.720739130739425], [-85.76031862855828, 34.720469636154185], [-85.7605881231435, 34.72020014156895], [-85.76085761772875, 34.72020014156895], [-85.76112711231399, 34.71993064698371], [-85.76139660689923, 34.71966115239848], [-85.76166610148445, 34.71966115239848], [-85.76193559606969, 34.71966115239848], [-85.76220509065493, 34.71939165781324], [-85.76247458524016, 34.71912216322801], [-85.7627440798254, 34.71912216322801], [-85.76301357441064, 34.718852668642775], [-85.76328306899588, 34.718583174057535], [-85.7635525635811, 34.718583174057535], [-85.76382205816634, 34.7183136794723], [-85.76409155275158, 34.7183136794723], [-85.76436104733682, 34.71804418488706], [-85.76463054192205, 34.71804418488706], [-85.76490003650729, 34.71777469030183], [-85.76516953109252, 34.71750519571659], [-85.76543902567775, 34.71723570113136], [-85.76570852026299, 34.71723570113136], [-85.76597801484823, 34.71696620654612], [-85.76624750943347, 34.716696711960886], [-85.7665170040187, 34.716427217375646], [-85.76678649860393, 34.716427217375646], [-85.76705599318917, 34.716427217375646], [-85.76732548777441, 34.71615772279041], [-85.76732548777441, 34.71588822820518], [-85.76759498235964, 34.71561873361994], [-85.76786447694488, 34.71561873361994], [-85.76813397153012, 34.71561873361994], [-85.76840346611534, 34.71534923903471], [-85.76867296070058, 34.71534923903471], [-85.76894245528582, 34.71507974444947], [-85.76921194987106, 34.71507974444947], [-85.76948144445629, 34.714810249864236], [-85.76975093904153, 34.714540755278996], [-85.77002043362677, 34.714540755278996], [-85.77028992821201, 34.714271260693764], [-85.77055942279723, 34.714271260693764], [-85.77082891738247, 34.714001766108524], [-85.77109841196771, 34.714001766108524], [-85.77136790655294, 34.71373227152329], [-85.77163740113818, 34.71346277693805], [-85.77190689572342, 34.71319328235282], [-85.77217639030866, 34.71319328235282], [-85.77244588489388, 34.71319328235282], [-85.77271537947912, 34.712923787767586], [-85.77298487406436, 34.712923787767586], [-85.7732543686496, 34.71265429318235], [-85.77352386323483, 34.712384798597114], [-85.77379335782007, 34.712115304011874], [-85.77406285240531, 34.712115304011874], [-85.77433234699053, 34.71184580942664], [-85.77460184157577, 34.7115763148414], [-85.77487133616101, 34.71130682025617], [-85.77514083074625, 34.71130682025617], [-85.77541032533148, 34.71130682025617], [-85.77567981991672, 34.71103732567093], [-85.77567981991672, 34.7107678310857], [-85.77594931450196, 34.71049833650046], [-85.7762188090872, 34.71049833650046], [-85.77648830367242, 34.71049833650046], [-85.77675779825766, 34.710228841915225], [-85.7770272928429, 34.710228841915225], [-85.77729678742813, 34.710228841915225], [-85.77756628201337, 34.70995934732999], [-85.77756628201337, 34.70968985274475], [-85.77783577659861, 34.70942035815952], [-85.77810527118385, 34.70942035815952], [-85.77837476576907, 34.70942035815952], [-85.77864426035431, 34.70915086357428], [-85.77891375493955, 34.70888136898905], [-85.77918324952479, 34.70888136898905], [-85.77945274411002, 34.70861187440381], [-85.77972223869526, 34.708342379818575], [-85.7799917332805, 34.708342379818575], [-85.78026122786572, 34.708342379818575], [-85.78053072245096, 34.708072885233335], [-85.7808002170362, 34.7078033906481], [-85.78106971162144, 34.70753389606286], [-85.78133920620667, 34.70753389606286], [-85.7816087007919, 34.70753389606286], [-85.78187819537715, 34.70726440147763], [-85.78214768996239, 34.70726440147763], [-85.78241718454761, 34.70726440147763], [-85.78268667913285, 34.7069949068924], [-85.78295617371809, 34.70672541230716], [-85.78322566830332, 34.706455917721925], [-85.78349516288856, 34.706455917721925], [-85.7837646574738, 34.706455917721925], [-85.78403415205904, 34.706186423136685], [-85.78430364664426, 34.706186423136685], [-85.7845731412295, 34.706186423136685], [-85.78484263581474, 34.70591692855145], [-85.78511213039998, 34.70591692855145], [-85.7853816249852, 34.70564743396621], [-85.78565111957045, 34.70537793938098], [-85.78592061415569, 34.70537793938098], [-85.78619010874093, 34.70510844479574], [-85.78645960332615, 34.70510844479574], [-85.78672909791139, 34.70510844479574], [-85.78699859249663, 34.70510844479574], [-85.78726808708186, 34.70483895021051], [-85.7875375816671, 34.70483895021051], [-85.78780707625234, 34.70456945562527], [-85.78807657083757, 34.704299961040036], [-85.7883460654228, 34.704299961040036], [-85.78861556000804, 34.704299961040036], [-85.78888505459328, 34.7040304664548], [-85.78915454917852, 34.7040304664548], [-85.78942404376374, 34.70376097186956], [-85.78969353834898, 34.70349147728433], [-85.78996303293422, 34.70349147728433], [-85.79023252751945, 34.70322198269909], [-85.79050202210469, 34.70322198269909], [-85.79077151668993, 34.70322198269909], [-85.79104101127517, 34.70322198269909], [-85.7913105058604, 34.70295248811386], [-85.79158000044563, 34.70295248811386], [-85.79184949503087, 34.70268299352862], [-85.79211898961611, 34.702413498943386], [-85.79238848420134, 34.702413498943386], [-85.79265797878658, 34.702413498943386], [-85.79292747337182, 34.702144004358146], [-85.79319696795704, 34.702144004358146], [-85.79346646254228, 34.702144004358146], [-85.79373595712752, 34.701874509772914], [-85.79400545171276, 34.701605015187674], [-85.79427494629799, 34.70133552060244], [-85.79454444088323, 34.70133552060244], [-85.79481393546847, 34.70133552060244], [-85.79508343005371, 34.70106602601721], [-85.79535292463893, 34.70106602601721], [-85.79562241922417, 34.70106602601721], [-85.79589191380941, 34.70079653143197], [-85.79616140839464, 34.70052703684674], [-85.79643090297988, 34.7002575422615], [-85.79670039756512, 34.7002575422615], [-85.79696989215036, 34.7002575422615], [-85.79723938673558, 34.699988047676264], [-85.79750888132082, 34.699988047676264], [-85.79777837590606, 34.699718553091024], [-85.7980478704913, 34.69944905850579], [-85.79831736507653, 34.69944905850579], [-85.79858685966177, 34.69944905850579], [-85.79885635424701, 34.69917956392055], [-85.79912584883223, 34.69917956392055], [-85.79939534341747, 34.69891006933532], [-85.79966483800271, 34.69891006933532], [-85.79993433258795, 34.69864057475008], [-85.80020382717318, 34.69837108016485], [-85.80047332175842, 34.69837108016485], [-85.80074281634366, 34.69837108016485], [-85.8010123109289, 34.698101585579614], [-85.80128180551412, 34.698101585579614], [-85.80155130009936, 34.697832090994375], [-85.8018207946846, 34.697832090994375], [-85.80209028926983, 34.69756259640914], [-85.80235978385507, 34.6972931018239], [-85.8026292784403, 34.6972931018239], [-85.80289877302555, 34.6972931018239], [-85.80316826761077, 34.69702360723867], [-85.80343776219601, 34.69702360723867], [-85.80370725678125, 34.69702360723867], [-85.80397675136649, 34.69702360723867], [-85.80424624595172, 34.69675411265343], [-85.80451574053696, 34.69675411265343], [-85.8047852351222, 34.6964846180682], [-85.80505472970742, 34.69621512348296], [-85.80532422429266, 34.69621512348296], [-85.8055937188779, 34.695945628897725], [-85.80586321346314, 34.695945628897725], [-85.80613270804837, 34.695676134312485], [-85.8064022026336, 34.69540663972725], [-85.80667169721885, 34.69540663972725], [-85.80694119180409, 34.69540663972725], [-85.80721068638931, 34.69513714514202], [-85.80748018097455, 34.69513714514202], [-85.80774967555979, 34.69513714514202], [-85.80801917014502, 34.69486765055678], [-85.80828866473026, 34.69459815597155], [-85.8085581593155, 34.69432866138631], [-85.80882765390074, 34.69432866138631], [-85.80909714848596, 34.694059166801075], [-85.8093666430712, 34.694059166801075], [-85.80963613765644, 34.693789672215836], [-85.80990563224168, 34.693789672215836], [-85.8101751268269, 34.6935201776306], [-85.81044462141215, 34.69325068304536], [-85.81071411599738, 34.69298118846013], [-85.81098361058261, 34.69298118846013], [-85.81125310516785, 34.69298118846013], [-85.81152259975309, 34.69271169387489], [-85.81179209433833, 34.69244219928966], [-85.81206158892356, 34.692172704704426], [-85.8123310835088, 34.692172704704426], [-85.81260057809403, 34.691903210119186], [-85.81287007267927, 34.691903210119186], [-85.8131395672645, 34.69163371553395], [-85.81340906184974, 34.691364220948714], [-85.81367855643498, 34.691364220948714], [-85.8139480510202, 34.691364220948714], [-85.81421754560544, 34.69109472636348], [-85.81448704019068, 34.69082523177824], [-85.81475653477592, 34.69082523177824], [-85.81502602936115, 34.69055573719301], [-85.81529552394639, 34.69028624260777], [-85.81556501853163, 34.690016748022536], [-85.81583451311687, 34.690016748022536], [-85.8161040077021, 34.690016748022536], [-85.81637350228733, 34.6897472534373], [-85.81637350228733, 34.689477758852064], [-85.81664299687257, 34.68920826426683], [-85.8169124914578, 34.68920826426683], [-85.81718198604304, 34.68920826426683], [-85.81745148062828, 34.68893876968159], [-85.81772097521352, 34.68866927509636], [-85.81799046979874, 34.68866927509636], [-85.81825996438398, 34.68839978051112], [-85.81852945896922, 34.68813028592589], [-85.81879895355446, 34.68786079134065], [-85.81906844813969, 34.68786079134065], [-85.81933794272493, 34.687591296755414], [-85.81960743731017, 34.687321802170175], [-85.8198769318954, 34.68705230758494], [-85.82014642648063, 34.68705230758494], [-85.82041592106587, 34.6867828129997], [-85.82068541565111, 34.6867828129997], [-85.82095491023634, 34.68651331841447], [-85.82122440482158, 34.68624382382923], [-85.82149389940682, 34.685974329244], [-85.82176339399206, 34.685704834658765], [-85.82203288857728, 34.685704834658765], [-85.82230238316252, 34.685435340073525], [-85.82257187774776, 34.68516584548829], [-85.82284137233299, 34.68489635090305], [-85.82311086691823, 34.68489635090305], [-85.82338036150347, 34.68462685631782], [-85.82338036150347, 34.68435736173258], [-85.82364985608871, 34.68408786714735], [-85.82391935067393, 34.68408786714735], [-85.82418884525917, 34.68408786714735], [-85.82445833984441, 34.68381837256211], [-85.82445833984441, 34.683548877976875], [-85.82472783442965, 34.683279383391636], [-85.82499732901488, 34.6830098888064], [-85.82526682360012, 34.6830098888064], [-85.82553631818536, 34.68274039422117], [-85.82553631818536, 34.68247089963593], [-85.82580581277058, 34.6822014050507], [-85.82607530735582, 34.6822014050507], [-85.82634480194106, 34.68193191046546], [-85.8266142965263, 34.68193191046546], [-85.82688379111153, 34.681662415880226], [-85.82715328569677, 34.681392921294986], [-85.827422780282, 34.68112342670975], [-85.82769227486725, 34.68085393212451], [-85.82796176945247, 34.68058443753928], [-85.82823126403771, 34.68031494295404], [-85.82850075862295, 34.68004544836881], [-85.82877025320818, 34.679775953783576], [-85.82903974779342, 34.679775953783576], [-85.82930924237866, 34.679506459198336], [-85.8295787369639, 34.679236964613104], [-85.82984823154912, 34.678967470027864], [-85.83011772613436, 34.678967470027864], [-85.8303872207196, 34.67869797544263], [-85.8303872207196, 34.67842848085739], [-85.83065671530484, 34.67815898627216], [-85.83092620989007, 34.67788949168692], [-85.8311957044753, 34.67761999710169], [-85.8311957044753, 34.67735050251645], [-85.83146519906055, 34.677081007931214], [-85.83173469364577, 34.67681151334598], [-85.83173469364577, 34.67654201876074], [-85.83173469364577, 34.67627252417551], [-85.83200418823101, 34.67600302959027], [-85.83227368281625, 34.67600302959027], [-85.83254317740149, 34.67573353500504], [-85.83254317740149, 34.6754640404198], [-85.83254317740149, 34.675194545834565], [-85.83281267198672, 34.674925051249325], [-85.83281267198672, 34.67465555666409], [-85.83281267198672, 34.67438606207885], [-85.83308216657196, 34.67411656749362], [-85.8333516611572, 34.67411656749362], [-85.83362115574243, 34.67384707290839], [-85.83389065032766, 34.67384707290839]]}}]}